$$SOE
2459580.500000000, A.D. 2022-Jan-01 00:00:00.0000, -2.682535007742848E+08, -2.986982497049742E+08, -6.224446920282516E+07,
2459587.500000000, A.D. 2022-Jan-08 00:00:00.0000, -2.600175291202542E+08, -3.059103298242707E+08, -6.145017520732790E+07,
2459594.500000000, A.D. 2022-Jan-15 00:00:00.0000, -2.515932094482753E+08, -3.129007726954865E+08, -6.061135858341146E+07,
2459601.500000000, A.D. 2022-Jan-22 00:00:00.0000, -2.429864968131429E+08, -3.196643360849012E+08, -5.972859281860425E+07,
2459608.500000000, A.D. 2022-Jan-29 00:00:00.0000, -2.342034907601157E+08, -3.261959359956142E+08, -5.880248490531969E+07,
2459615.500000000, A.D. 2022-Feb-05 00:00:00.0000, -2.252504331756661E+08, -3.324906518068620E+08, -5.783367481653705E+07,
2459622.500000000, A.D. 2022-Feb-12 00:00:00.0000, -2.161337038168976E+08, -3.385437323639842E+08, -5.682283523584813E+07,
2459629.500000000, A.D. 2022-Feb-19 00:00:00.0000, -2.068598148490430E+08, -3.443506006451588E+08, -5.577067122729161E+07,
2459636.500000000, A.D. 2022-Feb-26 00:00:00.0000, -1.974354057063988E+08, -3.499068577217442E+08, -5.467791978396502E+07,
2459643.500000000, A.D. 2022-Mar-05 00:00:00.0000, -1.878672381208652E+08, -3.552082866228519E+08, -5.354534932066612E+07,
2459650.500000000, A.D. 2022-Mar-12 00:00:00.0000, -1.781621910995899E+08, -3.602508561643570E+08, -5.237375913683283E+07,
2459657.500000000, A.D. 2022-Mar-19 00:00:00.0000, -1.683272557847657E+08, -3.650307247099504E+08, -5.116397885496800E+07,
2459664.500000000, A.D. 2022-Mar-26 00:00:00.0000, -1.583695301788416E+08, -3.695442438660557E+08, -4.991686783808635E+07,
2459671.500000000, A.D. 2022-Apr-02 00:00:00.0000, -1.482962136739789E+08, -3.737879621610398E+08, -4.863331459746383E+07,
2459678.500000000, A.D. 2022-Apr-09 00:00:00.0000, -1.381146011198450E+08, -3.777586286966223E+08, -4.731423621508934E+07,
2459685.500000000, A.D. 2022-Apr-16 00:00:00.0000, -1.278320760771269E+08, -3.814531961091613E+08, -4.596057775966558E+07,
2459692.500000000, A.D. 2022-Apr-23 00:00:00.0000, -1.174561045283030E+08, -3.848688217488689E+08, -4.457331149102442E+07,
2459699.500000000, A.D. 2022-Apr-30 00:00:00.0000, -1.069942309174682E+08, -3.880028693169428E+08, -4.315343586571801E+07,
2459706.500000000, A.D. 2022-May-07 00:00:00.0000, -9.645407345969690E+07, -3.908529129333697E+08, -4.170197478799909E+07,
2459713.500000000, A.D. 2022-May-14 00:00:00.0000, -8.584331733767465E+07, -3.934167405989181E+08, -4.021997698760724E+07,
2459720.500000000, A.D. 2022-May-21 00:00:00.0000, -7.516970782610781E+07, -3.956923562922599E+08, -3.870851527744502E+07,
2459727.500000000, A.D. 2022-May-28 00:00:00.0000, -6.444104383207007E+07, -3.976779816578144E+08, -3.716868572610727E+07,
2459734.500000000, A.D. 2022-Jun-04 00:00:00.0000, -5.366517158265152E+07, -3.993720575921625E+08, -3.560160679633516E+07,
2459741.500000000, A.D. 2022-Jun-11 00:00:00.0000, -4.284997832250344E+07, -4.007732457209402E+08, -3.400841846249369E+07,
2459748.500000000, A.D. 2022-Jun-18 00:00:00.0000, -3.200338598858244E+07, -4.018804297473263E+08, -3.239028130977896E+07,
2459755.500000000, A.D. 2022-Jun-25 00:00:00.0000, -2.113334483804769E+07, -4.026927167011651E+08, -3.074837562113941E+07,
2459762.500000000, A.D. 2022-Jul-02 00:00:00.0000, -1.024782690088260E+07, -4.032094381518746E+08, -2.908390047037700E+07,
2459769.500000000, A.D. 2022-Jul-09 00:00:00.0000, 6.451811269891711E+05, -4.034301512066617E+08, -2.739807284370890E+07,
2459776.500000000, A.D. 2022-Jul-16 00:00:00.0000, 1.153768548834041E+07, -4.033546382104764E+08, -2.569212669729719E+07,
2459783.500000000, A.D. 2022-Jul-23 00:00:00.0000, 2.242169126145507E+07, -4.029829050690027E+08, -2.396731174383926E+07,
2459790.500000000, A.D. 2022-Jul-30 00:00:00.0000, 3.328920662624649E+07, -4.023151815471735E+08, -2.222489225117731E+07,
2459797.500000000, A.D. 2022-Aug-06 00:00:00.0000, 4.413224909173724E+07, -4.013519228955051E+08, -2.046614613133630E+07,
2459804.500000000, A.D. 2022-Aug-13 00:00:00.0000, 5.494285285398987E+07, -4.000938100516889E+08, -1.869236402047500E+07,
2459811.500000000, A.D. 2022-Aug-20 00:00:00.0000, 6.571307570679398E+07, -3.985417489218357E+08, -1.690484824776801E+07,
2459818.500000000, A.D. 2022-Aug-27 00:00:00.0000, 7.643500556508717E+07, -3.966968694682001E+08, -1.510491175960615E+07,
2459825.500000000, A.D. 2022-Sep-03 00:00:00.0000, 8.710076684102021E+07, -3.945605247141013E+08, -1.329387703170893E+07,
2459832.500000000, A.D. 2022-Sep-10 00:00:00.0000, 9.770252675485693E+07, -3.921342896420947E+08, -1.147307497640738E+07,
2459839.500000000, A.D. 2022-Sep-17 00:00:00.0000, 1.082325016027867E+08, -3.894199599869924E+08, -9.643843849120378E+06,
2459846.500000000, A.D. 2022-Sep-24 00:00:00.0000, 1.186829630356790E+08, -3.864195509753132E+08, -7.807528165107757E+06,
2459853.500000000, A.D. 2022-Oct-01 00:00:00.0000, 1.290462445826797E+08, -3.831352960358928E+08, -5.965477651756465E+06,
2459860.500000000, A.D. 2022-Oct-08 00:00:00.0000, 1.393147488202791E+08, -3.795696449632463E+08, -4.119046232432932E+06,
2459867.500000000, A.D. 2022-Oct-15 00:00:00.0000, 1.494809542474652E+08, -3.757252603380382E+08, -2.269590859755337E+06,
2459874.500000000, A.D. 2022-Oct-22 00:00:00.0000, 1.595374196773999E+08, -3.716050138904132E+08, -4.184701372741163E+05,
2459881.500000000, A.D. 2022-Oct-29 00:00:00.0000, 1.694767886366437E+08, -3.672119854004708E+08, 1.432956827659667E+06,
2459888.500000000, A.D. 2022-Nov-05 00:00:00.0000, 1.792917958660373E+08, -3.625494613977448E+08, 3.283331369618028E+06,
2459895.500000000, A.D. 2022-Nov-12 00:00:00.0000, 1.889752739530626E+08, -3.576209323973023E+08, 5.131296291768447E+06,
2459902.500000000, A.D. 2022-Nov-19 00:00:00.0000, 1.985201593705726E+08, -3.524300896313334E+08, 6.975496960206151E+06,
2459909.500000000, A.D. 2022-Nov-26 00:00:00.0000, 2.079194981785102E+08, -3.469808216783719E+08, 8.814582408232614E+06,
2459916.500000000, A.D. 2022-Dec-03 00:00:00.0000, 2.171664515489984E+08, -3.412772110070275E+08, 1.064720643337303E+07,
2459923.500000000, A.D. 2022-Dec-10 00:00:00.0000, 2.262543011539432E+08, -3.353235304211268E+08, 1.247202868354096E+07,
2459930.500000000, A.D. 2022-Dec-17 00:00:00.0000, 2.351764544323366E+08, -3.291242394360404E+08, 1.428771572697422E+07,
2459937.500000000, A.D. 2022-Dec-24 00:00:00.0000, 2.439264498388104E+08, -3.226839806551375E+08, 1.609294208915932E+07,
2459944.500000000, A.D. 2022-Dec-31 00:00:00.0000, 2.524979624246243E+08, -3.160075760410237E+08, 1.788639123117910E+07,
2459951.500000000, A.D. 2023-Jan-07 00:00:00.0000, 2.608848098695707E+08, -3.091000221222758E+08, 1.966675653540070E+07,
2459958.500000000, A.D. 2023-Jan-14 00:00:00.0000, 2.690809569949247E+08, -3.019664836436356E+08, 2.143274251819731E+07,
2459965.500000000, A.D. 2023-Jan-21 00:00:00.0000, 2.770805181099979E+08, -2.946122888375751E+08, 2.318306606829126E+07,
2459972.500000000, A.D. 2023-Jan-28 00:00:00.0000, 2.848777608582560E+08, -2.870429265187861E+08, 2.491645735735720E+07,
2459979.500000000, A.D. 2023-Feb-04 00:00:00.0000, 2.924671113527409E+08, -2.792640419822342E+08, 2.663166068911257E+07,
2459986.500000000, A.D. 2023-Feb-11 00:00:00.0000, 2.998431588023911E+08, -2.712814319071004E+08, 2.832743543551585E+07,
2459993.500000000, A.D. 2023-Feb-18 00:00:00.0000, 3.070006595618475E+08, -2.631010390968817E+08, 3.000255699808069E+07,
2460000.500000000, A.D. 2023-Feb-25 00:00:00.0000, 3.139345408636918E+08, -2.547289472233309E+08, 3.165581775627407E+07,
2460007.500000000, A.D. 2023-Mar-04 00:00:00.0000, 3.206399043321888E+08, -2.461713755610245E+08, 3.328602799444447E+07,
2460014.500000000, A.D. 2023-Mar-11 00:00:00.0000, 3.271120293044629E+08, -2.374346737178637E+08, 3.489201680401445E+07,
2460021.500000000, A.D. 2023-Mar-18 00:00:00.0000, 3.333463760033151E+08, -2.285253164167814E+08, 3.647263295178176E+07,
2460028.500000000, A.D. 2023-Mar-25 00:00:00.0000, 3.393385887621040E+08, -2.194498983808322E+08, 3.802674569082029E+07,
2460035.500000000, A.D. 2023-Apr-01 00:00:00.0000, 3.450844997249790E+08, -2.102151289327048E+08, 3.955324550645898E+07,
2460042.500000000, A.D. 2023-Apr-08 00:00:00.0000, 3.505801324082383E+08, -2.008278250900657E+08, 4.105104495401305E+07,
2460049.500000000, A.D. 2023-Apr-15 00:00:00.0000, 3.558217027860985E+08, -1.912949042715946E+08, 4.251907971242487E+07,
2460056.500000000, A.D. 2023-Apr-22 00:00:00.0000, 3.608056197072522E+08, -1.816233796725641E+08, 4.395630943758655E+07,
2460063.500000000, A.D. 2023-Apr-29 00:00:00.0000, 3.655284873750909E+08, -1.718203560616480E+08, 4.536171834746388E+07,
2460070.500000000, A.D. 2023-May-06 00:00:00.0000, 3.699871081316811E+08, -1.618930242232998E+08, 4.673431584553952E+07,
2460077.500000000, A.D. 2023-May-13 00:00:00.0000, 3.741784845694134E+08, -1.518486549457420E+08, 4.807313719880079E+07,
2460084.500000000, A.D. 2023-May-20 00:00:00.0000, 3.780998212048728E+08, -1.416945930520682E+08, 4.937724420817004E+07,
2460091.500000000, A.D. 2023-May-27 00:00:00.0000, 3.817485259089067E+08, -1.314382515100487E+08, 5.064572585067455E+07,
2460098.500000000, A.D. 2023-Jun-03 00:00:00.0000, 3.851222111512873E+08, -1.210871056007275E+08, 5.187769888968967E+07,
2460105.500000000, A.D. 2023-Jun-10 00:00:00.0000, 3.882186950848513E+08, -1.106486871657768E+08, 5.307230844950600E+07,
2460112.500000000, A.D. 2023-Jun-17 00:00:00.0000, 3.910360025589976E+08, -1.001305790001530E+08, 5.422872854059266E+07,
2460119.500000000, A.D. 2023-Jun-24 00:00:00.0000, 3.935723663823278E+08, -8.954040934029736E+07, 5.534616250977911E+07,
2460126.500000000, A.D. 2023-Jul-01 00:00:00.0000, 3.958262290876951E+08, -7.888584562371013E+07, 5.642384345891671E+07,
2460133.500000000, A.D. 2023-Jul-08 00:00:00.0000, 3.977962435295095E+08, -6.817458670189774E+07, 5.746103485323163E+07,
2460140.500000000, A.D. 2023-Jul-15 00:00:00.0000, 3.994812710412216E+08, -5.741435634375797E+07, 5.845703120606601E+07,
$$EOE